NORAD_CAT_ID,OBJECT_NAME,OBJECT_TYPE,EPOCH,MEAN_MOTION,ECCENTRICITY,INCLINATION,RA_OF_ASC_NODE,ARG_OF_PERICENTER,MEAN_ANOMALY,BSTAR,MEAN_MOTION_DOT,MEAN_MOTION_DDOT,TLE_LINE0,TLE_LINE1,TLE_LINE2,SEMIMAJOR_AXIS,PERIOD,APOGEE,PERIGEE,DECAYED
52285.0,STARLINK-3775,PAYLOAD,2022-12-29 05:44:07,15.0882962,0.0003406,53.2156,305.5371,30.4075,329.7114,-0.0001313,-2.378e-05,0.0,0 STARLINK-3775,1 52285U 22041AA  22363.23897270 -.00002378  00000-0 -13130-3 0  9998,2 52285  53.2156 305.5371 0003406  30.4075 329.7114 15.08829620 39507,6917.9119999999975,95.438,542.133,537.4209999999998,0.0
52285.0,STARLINK-3775,PAYLOAD,2022-12-29 13:41:03,15.08820782,0.0002973,53.2153,304.05,30.3986,329.7178,-0.00016261,-2.874e-05,0.0,0 STARLINK-3775,1 52285U 22041AA  22363.57017801 -.00002874  00000-0 -16261-3 0  9998,2 52285  53.2153 304.0500 0002973  30.3986 329.7178 15.08820782 39555,6917.939,95.439,541.861,537.747,0.0
52285.0,STARLINK-3775,PAYLOAD,2022-12-30 02:24:08,15.08832345,0.0002938,53.2146,301.6702,27.9437,332.1713,0.00015063,2.109e-05,0.0,0 STARLINK-3775,1 52285U 22041AA  22364.10010093  .00002109  00000-0  15063-3 0  9992,2 52285  53.2146 301.6702 0002938  27.9437 332.1713 15.08832345 39638,6917.904,95.438,541.8009999999998,537.736,0.0
52285.0,STARLINK-3775,PAYLOAD,2022-12-30 05:34:54,15.08838197,0.0002777,53.2149,301.0753,29.054,331.0606,0.0003415,5.151e-05,0.0,0 STARLINK-3775,1 52285U 22041AA  22364.23257972  .00005151  00000-0  34150-3 0  9993,2 52285  53.2149 301.0753 0002777  29.0540 331.0606 15.08838197 38426,6917.886,95.438,541.672,537.83,0.0
52285.0,STARLINK-3775,PAYLOAD,2022-12-30 13:31:50,15.08852535,0.0002722,53.2149,299.5891,29.063,331.0513,0.00098122,0.00015368,0.0,0 STARLINK-3775,1 52285U 22041AA  22364.56377933  .00015368  00000-0  98122-3 0  9999,2 52285  53.2149 299.5891 0002722  29.0630 331.0513 15.08852535 39701,6917.842,95.437,541.59,537.8240000000002,0.0
52285.0,STARLINK-3775,PAYLOAD,2022-12-31 05:25:40,15.0887779,0.000292,53.2155,296.6159,27.9085,332.2064,0.00093135,0.00014581,0.0,0 STARLINK-3775,1 52285U 22041AA  22365.22616718  .00014581  00000-0  93135-3 0  9995,2 52285  53.2155 296.6159 0002920  27.9085 332.2064 15.08877790 38572,6917.765,95.435,541.65,537.61,0.0
52285.0,STARLINK-3775,PAYLOAD,2022-12-31 19:44:08,15.08869925,0.0003003999999999,53.2167,293.9391,34.3333,325.7853,0.0004453,6.812e-05,0.0,0 STARLINK-3775,1 52285U 22041AA  22365.82232097  .00006812  00000-0  44530-3 0  9998,2 52285  53.2167 293.9391 0003004  34.3333 325.7853 15.08869925 38669,6917.7890000000025,95.436,541.732,537.576,0.0
52285.0,STARLINK-3775,PAYLOAD,2023-01-01 05:16:27,15.0884408,0.0002866,53.2159,292.1552,25.2503,334.8629,-4.742e-05,-1.043e-05,0.0,0 STARLINK-3775,1 52285U 22041AA  23001.21976245 -.00001043  00000-0 -47420-4 0  9994,2 52285  53.2159 292.1552 0002866  25.2503 334.8629 15.08844080 39953,6917.868,95.437,541.716,537.75,0.0
52285.0,STARLINK-3775,PAYLOAD,2023-01-01 19:34:56,15.08819678,0.0003009,53.2156,289.4778,32.327,327.7906,0.00019673,2.842e-05,0.0,0 STARLINK-3775,1 52285U 22041AA  23001.81593636  .00002842  00000-0  19673-3 0  9993,2 52285  53.2156 289.4778 0003009  32.3270 327.7906 15.08819678 40045,6917.943,95.439,541.889,537.726,0.0
52285.0,STARLINK-3775,PAYLOAD,2023-01-02 11:28:48,15.08839503,0.0002723,53.2157,286.5043,22.2408,337.8701,0.0010208,0.00015995,0.0,0 STARLINK-3775,1 52285U 22041AA  23002.47834141  .00015995  00000-0  10208-2 0  9992,2 52285  53.2157 286.5043 0002723  22.2408 337.8701 15.08839503 38919,6917.882,95.438,541.631,537.863,0.0
52285.0,STARLINK-3775,PAYLOAD,2023-01-02 19:25:44,15.08838943,0.0002717,53.2156,285.0177,24.9703,335.142,0.00063907,9.897e-05,0.0,0 STARLINK-3775,1 52285U 22041AA  23002.80954298  .00009897  00000-0  63907-3 0  9994,2 52285  53.2156 285.0177 0002717  24.9703 335.1420 15.08838943 38961,6917.884,95.438,541.628,537.869,0.0
52285.0,STARLINK-3775,PAYLOAD,2023-01-03 03:22:40,15.08837625,0.0002728999999999,53.2156,283.5307,23.7839,336.3279,0.00031938,4.798e-05,0.0,0 STARLINK-3775,1 52285U 22041AA  23003.14074403  .00004798  00000-0  31938-3 0  9997,2 52285  53.2156 283.5307 0002729  23.7839 336.3279 15.08837625 40244,6917.888000000001,95.438,541.641,537.865,0.0
52285.0,STARLINK-3775,PAYLOAD,2023-01-03 11:19:35,15.08846626,0.0002723,53.2156,282.0439,24.0336,336.0783,0.00053393,8.221e-05,0.0,0 STARLINK-3775,1 52285U 22041AA  23003.47194262  .00008221  00000-0  53393-3 0  9993,2 52285  53.2156 282.0439 0002723  24.0336 336.0783 15.08846626 39060,6917.86,95.437,541.609,537.841,0.0
52285.0,STARLINK-3775,PAYLOAD,2023-01-04 01:38:04,15.08828684,0.0002756,53.2167,279.3682,25.9421,334.1709,2.0229e-06,-2.56e-06,0.0,0 STARLINK-3775,1 52285U 22041AA  23004.06810987 -.00000256  00000-0  20229-5 0  9993,2 52285  53.2167 279.3682 0002756  25.9421 334.1709 15.08828684 40380,6917.915,95.438,541.687,537.873,0.0
52285.0,STARLINK-3775,PAYLOAD,2023-01-04 11:10:23,15.08839346,0.0002602,53.216,277.5856,21.3522,338.7578,0.00017267,2.461e-05,0.0,0 STARLINK-3775,1 52285U 22041AA  23004.46554731  .00002461  00000-0  17267-3 0  9994,2 52285  53.2160 277.5856 0002602  21.3522 338.7578 15.08839346 40446,6917.882,95.438,541.547,537.947,0.0
52285.0,STARLINK-3775,PAYLOAD,2023-01-05 03:04:13,15.08870206,0.0002815,53.2158,274.6101,24.6678,335.4448,0.00070488,0.00010957,0.0,0 STARLINK-3775,1 52285U 22041AA  23005.12793295  .00010957  00000-0  70488-3 0  9991,2 52285  53.2158 274.6101 0002815  24.6678 335.4448 15.08870206 40549,6917.788000000001,95.436,541.6,537.706,0.0
52285.0,STARLINK-3775,PAYLOAD,2023-01-05 11:01:08,15.08864531,0.0002839,53.2156,273.1232,26.8839,333.23,0.00042305,6.456e-05,0.0,0 STARLINK-3775,1 52285U 22041AA  23005.45912971  .00006456  00000-0  42305-3 0  9997,2 52285  53.2156 273.1232 0002839  26.8839 333.2300 15.08864531 40597,6917.805,95.436,541.634,537.706,0.0
52285.0,STARLINK-3775,PAYLOAD,2023-01-06 10:51:56,15.08831664,0.0003027,53.2148,268.6646,21.2079,338.9038,-0.0004607,-7.612e-05,0.0,0 STARLINK-3775,1 52285U 22041AA  23006.45273248 -.00007612  00000-0 -46070-3 0  9995,2 52285  53.2148 268.6646 0003027  21.2079 338.9038 15.08831664 40749,6917.906,95.438,541.865,537.677,0.0
52285.0,STARLINK-3775,PAYLOAD,2023-01-06 17:13:29,15.08823935,0.0002866,53.215,267.4724,29.3048,330.8105,-0.0004942,-8.142e-05,0.0,0 STARLINK-3775,1 52285U 22041AA  23006.71769738 -.00008142  00000-0 -49420-3 0  9999,2 52285  53.2150 267.4724 0002866  29.3048 330.8105 15.08823935 39556,6917.929,95.439,541.7769999999998,537.812,0.0
52285.0,STARLINK-3775,PAYLOAD,2023-01-07 02:45:48,15.0881967,0.0002852,53.2147,265.6886,29.22,330.8951,-5.507600000000001e-05,-1.165e-05,0.0,0 STARLINK-3775,1 52285U 22041AA  23007.11514345 -.00001165  00000-0 -55076-4 0  9999,2 52285  53.2147 265.6886 0002852  29.2200 330.8951 15.08819670 39612,6917.943,95.439,541.781,537.835,0.0
52285.0,STARLINK-3775,PAYLOAD,2023-01-07 17:04:16,15.08832771,0.0002718,53.2149,263.0124,31.9776,328.1381,0.0001573,2.215e-05,0.0,0 STARLINK-3775,1 52285U 22041AA  23007.71130583  .00002215  00000-0  15730-3 0  9990,2 52285  53.2149 263.0124 0002718  31.9776 328.1381 15.08832771 40931,6917.901999999999,95.438,541.648,537.887,0.0
52285.0,STARLINK-3775,PAYLOAD,2023-01-08 02:36:36,15.08822091,0.000275,53.2153,261.2301,25.4546,334.6581,7.5636e-05,9.15e-06,0.0,0 STARLINK-3775,1 52285U 22041AA  23008.10875446  .00000915  00000-0  75636-4 0  9995,2 52285  53.2153 261.2301 0002750  25.4546 334.6581 15.08822091 40996,6917.935,95.439,541.703,537.898,0.0
52285.0,STARLINK-3775,PAYLOAD,2023-01-08 16:55:04,15.08828034,0.0002752,53.2145,258.5526,25.2251,334.8875,0.00025574,3.783e-05,0.0,0 STARLINK-3775,1 52285U 22041AA  23008.70491839  .00003783  00000-0  25574-3 0  9992,2 52285  53.2145 258.5526 0002752  25.2251 334.8875 15.08828034 39852,6917.917,95.438,541.686,537.878,0.0
52285.0,STARLINK-3775,PAYLOAD,2023-01-09 00:52:00,15.08846224,0.0002856999999999,53.2146,257.0668,25.7422,334.3711,0.00048041,7.367e-05,0.0,0 STARLINK-3775,1 52285U 22041AA  23009.03611362  .00007367  00000-0  48041-3 0  9990,2 52285  53.2146 257.0668 0002857  25.7422 334.3711 15.08846224 41134,6917.861,95.437,541.703,537.75,0.0
52285.0,STARLINK-3775,PAYLOAD,2023-01-09 08:48:56,15.08843628,0.0003,53.2148,255.5812,28.2129,331.9025,0.00031862,4.787e-05,0.0,0 STARLINK-3775,1 52285U 22041AA  23009.36731527  .00004787  00000-0  31862-3 0  9998,2 52285  53.2148 255.5812 0003000  28.2129 331.9025 15.08843628 39956,6917.8690000000015,95.437,541.81,537.659,0.0
52285.0,STARLINK-3775,PAYLOAD,2023-01-09 15:10:28,15.08850632,0.0002984,53.2143,254.39,26.8609,333.2537,0.00039885,6.067e-05,0.0,0 STARLINK-3775,1 52285U 22041AA  23009.63227240  .00006067  00000-0  39885-3 0  9996,2 52285  53.2143 254.3900 0002984  26.8609 333.2537 15.08850632 39993,6917.848000000001,95.437,541.7769999999998,537.649,0.0
52285.0,STARLINK-3775,PAYLOAD,2023-01-10 02:18:09,15.08853531,0.000289,53.2142,252.3089,24.6765,335.4365,0.00022622,3.315e-05,0.0,0 STARLINK-3775,1 52285U 22041AA  23010.09594881  .00003315  00000-0  22622-3 0  9990,2 52285  53.2142 252.3089 0002890  24.6765 335.4365 15.08853531 41293,6917.839,95.437,541.703,537.705,0.0
52285.0,STARLINK-3775,PAYLOAD,2023-01-10 08:39:42,15.0884236,0.0002917,53.2137,251.1189,25.4529,334.6606,-1.3902e-05,-5.1e-06,0.0,0 STARLINK-3775,1 52285U 22041AA  23010.36091113 -.00000510  00000-0 -13902-4 0  9998,2 52285  53.2137 251.1189 0002917  25.4529 334.6606 15.08842360 41334,6917.873000000001,95.437,541.756,537.72,0.0
52285.0,STARLINK-3775,PAYLOAD,2023-01-11 00:33:33,15.08844418,0.0002918999999999,53.2133,248.145,26.9017,333.2126,2.0183e-05,3.3e-07,0.0,0 STARLINK-3775,1 52285U 22041AA  23011.02330900  .00000033  00000-0  20183-4 0  9999,2 52285  53.2133 248.1450 0002919  26.9017 333.2126 15.08844418 40200,6917.866999999998,95.437,541.751,537.7130000000002,0.0
